NORAD_CAT_ID,OBJECT_NAME,OBJECT_TYPE,EPOCH,MEAN_MOTION,ECCENTRICITY,INCLINATION,RA_OF_ASC_NODE,ARG_OF_PERICENTER,MEAN_ANOMALY,BSTAR,MEAN_MOTION_DOT,MEAN_MOTION_DDOT,TLE_LINE0,TLE_LINE1,TLE_LINE2,SEMIMAJOR_AXIS,PERIOD,APOGEE,PERIGEE,DECAYED
52113.0,STARLINK-3736,PAYLOAD,2023-11-10 16:21:30,15.08842151,0.0001274,53.2167,294.9572,105.8152,254.2981,-6.5206e-05,-1.326e-05,0.0,0 STARLINK-3736,1 52113U 22029AB  23314.68160781 -.00001326  00000-0 -65206-4 0  9994,2 52113  53.2167 294.9572 0001274 105.8152 254.2981 15.08842151 92469,6917.874,95.437,540.62,538.857,0.0
52113.0,STARLINK-3736,PAYLOAD,2023-11-11 05:04:36,15.08837142,0.0001738,53.2175,292.5742,108.4925,251.6256,0.00013106,1.798e-05,0.0,0 STARLINK-3736,1 52113U 22029AB  23315.21153203  .00001798  00000-0  13106-3 0  9997,2 52113  53.2175 292.5742 0001738 108.4925 251.6256 15.08837142 92542,6917.889,95.438,540.956,538.552,0.0
52113.0,STARLINK-3736,PAYLOAD,2023-11-11 16:12:18,15.08839227,0.0001694,53.2172,290.496,98.1928,261.9257,0.00021438,3.125e-05,0.0,0 STARLINK-3736,1 52113U 22029AB  23315.67521552  .00003125  00000-0  21438-3 0  9996,2 52113  53.2172 290.4960 0001694  98.1928 261.9257 15.08839227 92616,6917.883,95.438,540.92,538.576,0.0
52113.0,STARLINK-3736,PAYLOAD,2023-11-12 04:55:23,15.08846575,0.0001616,53.217,288.1177,93.6803,266.4374,0.00037379,5.667e-05,0.0,0 STARLINK-3736,1 52113U 22029AB  23316.20513386  .00005667  00000-0  37379-3 0  9996,2 52113  53.2170 288.1177 0001616  93.6803 266.4374 15.08846575 92696,6917.86,95.437,540.843,538.607,0.0
52113.0,STARLINK-3736,PAYLOAD,2023-11-12 22:24:38,15.0884514,0.0001556,53.2164,284.8455,90.8146,269.3024,0.00030789,4.616e-05,0.0,0 STARLINK-3736,1 52113U 22029AB  23316.93377513  .00004616  00000-0  30789-3 0  9997,2 52113  53.2164 284.8455 0001556  90.8146 269.3024 15.08845140 92807,6917.865,95.437,540.806,538.653,0.0
52113.0,STARLINK-3736,PAYLOAD,2023-11-13 03:10:47,15.0884951,0.000161,53.2171,283.9546,93.3463,266.7713,0.00035005,5.289e-05,0.0,0 STARLINK-3736,1 52113U 22029AB  23317.13249342  .00005289  00000-0  35005-3 0  9991,2 52113  53.2171 283.9546 0001610  93.3463 266.7713 15.08849510 92831,6917.851,95.437,540.83,538.603,0.0
52113.0,STARLINK-3736,PAYLOAD,2023-11-13 07:56:56,15.0885592,0.0001515,53.2169,283.0611,89.1494,270.9672,0.00047981,7.36e-05,0.0,0 STARLINK-3736,1 52113U 22029AB  23317.33121098  .00007360  00000-0  47981-3 0  9998,2 52113  53.2169 283.0611 0001515  89.1494 270.9672 15.08855920 92869,6917.832,95.437,540.745,538.649,0.0
52113.0,STARLINK-3736,PAYLOAD,2023-11-13 14:18:29,15.08850963,0.000146,53.217,281.8703,82.1253,277.9905,0.00031316,4.701e-05,0.0,0 STARLINK-3736,1 52113U 22029AB  23317.59617124  .00004701  00000-0  31316-3 0  9997,2 52113  53.2170 281.8703 0001460  82.1253 277.9905 15.08850963 92907,6917.847,95.437,540.722,538.702,0.0
52113.0,STARLINK-3736,PAYLOAD,2023-11-14 04:36:57,15.08843024,0.0001472,53.2179,279.2,91.5925,268.5235,0.00010519,1.387e-05,0.0,0 STARLINK-3736,1 52113U 22029AB  23318.19233308  .00001387  00000-0  10519-3 0  9991,2 52113  53.2179 279.2000 0001472  91.5925 268.5235 15.08843024 92991,6917.871,95.437,540.754,538.718,0.0
52113.0,STARLINK-3736,PAYLOAD,2023-11-14 07:47:43,15.088468,0.0001486,53.2177,278.6027,88.754,271.3623,0.00013318,1.833e-05,0.0,0 STARLINK-3736,1 52113U 22029AB  23318.32481138  .00001833  00000-0  13318-3 0  9998,2 52113  53.2177 278.6027 0001486  88.7540 271.3623 15.08846800 93019,6917.86,95.437,540.753,538.697,0.0
52113.0,STARLINK-3736,PAYLOAD,2023-11-15 02:52:21,15.08838314,0.0001391,53.2167,275.0327,81.8257,278.2893,2.399e-05,9.4e-07,0.0,0 STARLINK-3736,1 52113U 22029AB  23319.11969528  .00000094  00000-0  23990-4 0  9996,2 52113  53.2167 275.0327 0001391  81.8257 278.2893 15.08838314 93135,6917.886,95.438,540.713,538.788,0.0
52113.0,STARLINK-3736,PAYLOAD,2023-11-15 04:27:44,15.08840838,0.0001506,53.2178,274.7346,84.9878,275.1286,5.7746e-05,6.31e-06,0.0,0 STARLINK-3736,1 52113U 22029AB  23319.18593432  .00000631  00000-0  57746-4 0  9993,2 52113  53.2178 274.7346 0001506  84.9878 275.1286 15.08840838 93142,6917.878,95.438,540.785,538.701,0.0
52113.0,STARLINK-3736,PAYLOAD,2023-11-16 04:18:31,15.08842098,0.0001553,53.2179,270.2743,70.0427,290.0732,0.00011036,1.469e-05,0.0,0 STARLINK-3736,1 52113U 22029AB  23320.17953589  .00001469  00000-0  11036-3 0  9998,2 52113  53.2179 270.2743 0001553  70.0427 290.0732 15.08842098 93291,6917.874,95.437,540.813,538.665,0.0
52113.0,STARLINK-3736,PAYLOAD,2023-11-17 02:33:56,15.08834367,0.0001763,53.218,266.1121,72.7824,287.3361,0.00033715,5.081e-05,0.0,0 STARLINK-3736,1 52113U 22029AB  23321.10690151  .00005081  00000-0  33715-3 0  9997,2 52113  53.2180 266.1121 0001763  72.7824 287.3361 15.08834367 93433,6917.898,95.438,540.982,538.543,0.0
52113.0,STARLINK-3736,PAYLOAD,2023-11-17 05:44:41,15.08847185,0.0001738,53.218,265.515,84.7228,275.3962,0.00011306,1.512e-05,0.0,0 STARLINK-3736,1 52113U 22029AB  23321.23937429  .00001512  00000-0  11306-3 0  9990,2 52113  53.2180 265.5150 0001738  84.7228 275.3962 15.08847185 93459,6917.858,95.437,540.926,538.521,0.0
52113.0,STARLINK-3736,PAYLOAD,2023-11-17 13:41:38,15.08835336,0.0001682,53.2181,264.031,82.6905,277.4278,1.6863e-06,-2.61e-06,0.0,0 STARLINK-3736,1 52113U 22029AB  23321.57058095 -.00000261  00000-0  16863-5 0  9996,2 52113  53.2181 264.0310 0001682  82.6905 277.4278 15.08835336 93503,6917.895,95.438,540.923,538.596,0.0
52113.0,STARLINK-3736,PAYLOAD,2023-11-18 13:32:25,15.08840165,0.0001826,53.2183,259.5711,81.0222,279.0976,9.9167e-05,1.29e-05,0.0,0 STARLINK-3736,1 52113U 22029AB  23322.56418303  .00001290  00000-0  99167-4 0  9997,2 52113  53.2183 259.5711 0001826  81.0222 279.0976 15.08840165 93659,6917.88,95.438,541.008,538.482,0.0
52113.0,STARLINK-3736,PAYLOAD,2023-11-19 02:15:29,15.08849408,0.0001491,53.2166,257.1906,105.0681,255.0477,0.00015297,2.148e-05,0.0,0 STARLINK-3736,1 52113U 22029AB  23323.09409566  .00002148  00000-0  15297-3 0  9991,2 52113  53.2166 257.1906 0001491 105.0681 255.0477 15.08849408 93732,6917.852,95.437,540.748,538.685,0.0
52113.0,STARLINK-3736,PAYLOAD,2023-11-19 13:23:11,15.08849854,0.0001715,53.218,255.1089,94.2282,265.8906,0.00017958,2.572e-05,0.0,0 STARLINK-3736,1 52113U 22029AB  23323.55777583  .00002572  00000-0  17958-3 0  9996,2 52113  53.2180 255.1089 0001715  94.2282 265.8906 15.08849854 93802,6917.85,95.437,540.902,538.529,0.0
52113.0,STARLINK-3736,PAYLOAD,2023-11-20 02:06:16,15.0884725,0.0001642,53.2172,252.7298,100.6152,259.5025,0.00019566,2.828e-05,0.0,0 STARLINK-3736,1 52113U 22029AB  23324.08769543  .00002828  00000-0  19566-3 0  9993,2 52113  53.2172 252.7298 0001642 100.6152 259.5025 15.08847250 93883,6917.858,95.437,540.859,538.587,0.0
52113.0,STARLINK-3736,PAYLOAD,2023-11-20 05:17:03,15.08849993,0.000165,53.2172,252.1352,100.6062,259.5116,0.00022732,3.333e-05,0.0,0 STARLINK-3736,1 52113U 22029AB  23324.22017411  .00003333  00000-0  22732-3 0  9990,2 52113  53.2172 252.1352 0001650 100.6062 259.5116 15.08849993 93907,6917.85,95.437,540.856,538.573,0.0
52113.0,STARLINK-3736,PAYLOAD,2023-11-20 22:46:17,15.08844017,0.0001695,53.2174,248.8646,100.3637,259.7546,1.7882e-05,-3e-08,0.0,0 STARLINK-3736,1 52113U 22029AB  23324.94881641 -.00000003  00000-0  17882-4 0  9996,2 52113  53.2174 248.8646 0001695 100.3637 259.7546 15.08844017 94015,6917.868,95.437,540.906,538.561,0.0
52113.0,STARLINK-3736,PAYLOAD,2023-11-21 03:32:27,15.08844178,0.00016,53.2168,247.9748,91.2927,268.8249,2.9459e-05,1.81e-06,0.0,0 STARLINK-3736,1 52113U 22029AB  23325.14753556  .00000181  00000-0  29459-4 0  9991,2 52113  53.2168 247.9748 0001600  91.2927 268.8249 15.08844178 94049,6917.868,95.437,540.839,538.626,0.0
52113.0,STARLINK-3736,PAYLOAD,2023-11-21 05:07:50,15.08844484,0.0001635,53.2168,247.6758,90.3075,269.8105,8.5064e-05,1.066e-05,0.0,0 STARLINK-3736,1 52113U 22029AB  23325.21377580  .00001066  00000-0  85064-4 0  9995,2 52113  53.2168 247.6758 0001635  90.3075 269.8105 15.08844484 94052,6917.867,95.437,540.863,538.601,0.0
52113.0,STARLINK-3736,PAYLOAD,2023-11-22 00:12:28,15.08840014,0.000162,53.2169,244.1079,91.3046,268.8132,9.7959e-05,1.271e-05,0.0,0 STARLINK-3736,1 52113U 22029AB  23326.00865921  .00001271  00000-0  97959-4 0  9998,2 52113  53.2169 244.1079 0001620  91.3046 268.8132 15.08840014 94171,6917.88,95.438,540.866,538.625,0.0
52113.0,STARLINK-3736,PAYLOAD,2023-11-23 00:03:14,15.08851561,0.0001621,53.217,239.6462,91.8667,268.2511,0.00030581,4.584e-05,0.0,0 STARLINK-3736,1 52113U 22029AB  23327.00225407  .00004584  00000-0  30581-3 0  9995,2 52113  53.2170 239.6462 0001621  91.8667 268.2511 15.08851561 94324,6917.845,95.437,540.831,538.589,0.0
52113.0,STARLINK-3736,PAYLOAD,2023-11-23 01:38:37,15.0885254,0.0001479,53.2159,239.349,97.3282,262.7879,0.00031784,4.776e-05,0.0,0 STARLINK-3736,1 52113U 22029AB  23327.06849269  .00004776  00000-0  31784-3 0  9998,2 52113  53.2159 239.3490 0001479  97.3282 262.7879 15.08852540 94339,6917.842,95.437,540.73,538.684,0.0
52113.0,STARLINK-3736,PAYLOAD,2023-11-23 22:18:39,15.08832826,0.0001509,53.216,235.4838,97.4561,262.6603,-3.105e-05,-7.82e-06,0.0,0 STARLINK-3736,1 52113U 22029AB  23327.92962357 -.00000782  00000-0 -31050-4 0  9999,2 52113  53.2160 235.4838 0001509  97.4561 262.6603 15.08832826 94462,6917.902,95.438,540.811,538.723,0.0
52113.0,STARLINK-3736,PAYLOAD,2023-11-24 03:04:48,15.08832222,0.0001519,53.2163,234.591,104.1073,256.0088,6.6697e-06,-1.82e-06,0.0,0 STARLINK-3736,1 52113U 22029AB  23328.12834458 -.00000182  00000-0  66697-5 0  9991,2 52113  53.2163 234.5910 0001519 104.1073 256.0088 15.08832222 94498,6917.904,95.438,540.82,538.718,0.0
52113.0,STARLINK-3736,PAYLOAD,2023-11-24 22:09:26,15.08839809,0.0001474,53.2163,231.0231,94.1292,265.9868,0.00028132,4.192e-05,0.0,0 STARLINK-3736,1 52113U 22029AB  23328.92322781  .00004192  00000-0  28132-3 0  9994,2 52113  53.2163 231.0231 0001474  94.1292 265.9868 15.08839809 94614,6917.881,95.438,540.766,538.726,0.0
